{"type": "FeatureCollection", "features": [ {"type": "Feature", "properties": {"norad_id": 34547, "name": "COSMOS 2251 DEB", "group": "cosmos-2251-debris", "lat": -14.951990511626073, "lon": 77.37357676208164, "alt_km": 668.8675338585317, "timestamp": "2025-12-22T11:33:20.834606+00:00", "meta": {"OBJECT_NAME": "COSMOS 2251 DEB", "OBJECT_ID": "1993-036UH", "EPOCH": "2025-12-21T06:16:36.725088", "MEAN_MOTION": 14.72512483, "ECCENTRICITY": 0.00163934, "INCLINATION": 74.0317, "RA_OF_ASC_NODE": 84.1334, "ARG_OF_PERICENTER": 162.7845, "MEAN_ANOMALY": 197.3887, "EPHEMERIS_TYPE": 0, "CLASSIFICATION_TYPE": "U", "NORAD_CAT_ID": 34547, "ELEMENT_SET_NO": 999, "REV_AT_EPOCH": 88647, "BSTAR": 0.00122774, "MEAN_MOTION_DOT": 7.792e-05, "MEAN_MOTION_DDOT": 0}, "tle": {"line1": "1 34547U 93036UH  25355.26153617  .00007792  00000+0  12277-2 0  9990", "line2": "2 34547  74.0317  84.1334 0016393 162.7845 197.3887 14.72512483886478"}}, "geometry": {"type": "Point", "coordinates": [77.37357676208164, -14.951990511626073]}}, {"type": "Feature", "properties": {"norad_id": 34553, "name": "COSMOS 2251 DEB", "group": "cosmos-2251-debris", "lat": 73.6440788856044, "lon": -109.17973046399585, "alt_km": 705.8245246907927, "timestamp": "2025-12-22T11:33:20.834617+00:00", "meta": {"OBJECT_NAME": "COSMOS 2251 DEB", "OBJECT_ID": "1993-036UP", "EPOCH": "2025-12-21T12:14:40.588800", "MEAN_MOTION": 14.57796029, "ECCENTRICITY": 0.00191028, "INCLINATION": 74.0239, "RA_OF_ASC_NODE": 175.2044, "ARG_OF_PERICENTER": 251.8858, "MEAN_ANOMALY": 139.3143, "EPHEMERIS_TYPE": 0, "CLASSIFICATION_TYPE": "U", "NORAD_CAT_ID": 34553, "ELEMENT_SET_NO": 999, "REV_AT_EPOCH": 88224, "BSTAR": 0.0008261884, "MEAN_MOTION_DOT": 3.761e-05, "MEAN_MOTION_DDOT": 0}, "tle": {"line1": "1 34553U 93036UP  25355.51019200  .00003761  00000+0  82619-3 0  9994", "line2": "2 34553  74.0239 175.2044 0019102 251.8858 139.3143 14.57796029882248"}}, "geometry": {"type": "Point", "coordinates": [-109.17973046399585, 73.6440788856044]}}, {"type": "Feature", "properties": {"norad_id": 34554, "name": "COSMOS 2251 DEB", "group": "cosmos-2251-debris", "lat": -36.26102671568915, "lon": 113.17363216209762, "alt_km": 780.4070443258724, "timestamp": "2025-12-22T11:33:20.834627+00:00", "meta": {"OBJECT_NAME": "COSMOS 2251 DEB", "OBJECT_ID": "1993-036UQ", "EPOCH": "2025-12-20T05:48:54.109152", "MEAN_MOTION": 14.37952739, "ECCENTRICITY": 0.002333, "INCLINATION": 74.0392, "RA_OF_ASC_NODE": 285.1768, "ARG_OF_PERICENTER": 346.0878, "MEAN_ANOMALY": 165.1635, "EPHEMERIS_TYPE": 0, "CLASSIFICATION_TYPE": "U", "NORAD_CAT_ID": 34554, "ELEMENT_SET_NO": 999, "REV_AT_EPOCH": 87863, "BSTAR": 0.00024183, "MEAN_MOTION_DOT": 7.07e-06, "MEAN_MOTION_DDOT": 0}, "tle": {"line1": "1 34554U 93036UQ  25354.24229293  .00000707  00000+0  24183-3 0  9998", "line2": "2 34554  74.0392 285.1768 0023330 346.0878 165.1635 14.37952739878631"}}, "geometry": {"type": "Point", "coordinates": [113.17363216209762, -36.26102671568915]}}, {"type": "Feature", "properties": {"norad_id": 34556, "name": "COSMOS 2251 DEB", "group": "cosmos-2251-debris", "lat": -21.012031467949615, "lon": 99.38566124371955, "alt_km": 645.0401177923122, "timestamp": "2025-12-22T11:33:20.834637+00:00", "meta": {"OBJECT_NAME": "COSMOS 2251 DEB", "OBJECT_ID": "1993-036US", "EPOCH": "2025-12-21T16:27:52.255008", "MEAN_MOTION": 14.78050661, "ECCENTRICITY": 0.0006726, "INCLINATION": 74.0162, "RA_OF_ASC_NODE": 107.2698, "ARG_OF_PERICENTER": 167.0947, "MEAN_ANOMALY": 260.1645, "EPHEMERIS_TYPE": 0, "CLASSIFICATION_TYPE": "U", "NORAD_CAT_ID": 34556, "ELEMENT_SET_NO": 999, "REV_AT_EPOCH": 88461, "BSTAR": 0.0018073, "MEAN_MOTION_DOT": 0.00013055, "MEAN_MOTION_DDOT": 0}, "tle": {"line1": "1 34556U 93036US  25355.68602147  .00013055  00000+0  18073-2 0  9992", "line2": "2 34556  74.0162 107.2698 0006726 167.0947 260.1645 14.78050661884612"}}, "geometry": {"type": "Point", "coordinates": [99.38566124371955, -21.012031467949615]}}, {"type": "Feature", "properties": {"norad_id": 34560, "name": "COSMOS 2251 DEB", "group": "cosmos-2251-debris", "lat": 30.79283453002612, "lon": 132.9906141848715, "alt_km": 661.2950857520891, "timestamp": "2025-12-22T11:33:20.834647+00:00", "meta": {"OBJECT_NAME": "COSMOS 2251 DEB", "OBJECT_ID": "1993-036UW", "EPOCH": "2025-12-21T19:39:42.022368", "MEAN_MOTION": 14.72348108, "ECCENTRICITY": 0.0013975, "INCLINATION": 74.0172, "RA_OF_ASC_NODE": 124.4456, "ARG_OF_PERICENTER": 206.7479, "MEAN_ANOMALY": 276.7329, "EPHEMERIS_TYPE": 0, "CLASSIFICATION_TYPE": "U", "NORAD_CAT_ID": 34560, "ELEMENT_SET_NO": 999, "REV_AT_EPOCH": 88385, "BSTAR": 0.0017282, "MEAN_MOTION_DOT": 0.00010939, "MEAN_MOTION_DDOT": 0}, "tle": {"line1": "1 34560U 93036UW  25355.81923637  .00010939  00000+0  17282-2 0  9991", "line2": "2 34560  74.0172 124.4456 0013975 206.7479 276.7329 14.72348108883853"}}, "geometry": {"type": "Point", "coordinates": [132.9906141848715, 30.79283453002612]}}, {"type": "Feature", "properties": {"norad_id": 34563, "name": "COSMOS 2251 DEB", "group": "cosmos-2251-debris", "lat": -23.38212900335472, "lon": 178.41145471766114, "alt_km": 736.6586056445203, "timestamp": "2025-12-22T11:33:20.834656+00:00", "meta": {"OBJECT_NAME": "COSMOS 2251 DEB", "OBJECT_ID": "1993-036UZ", "EPOCH": "2025-12-21T19:08:23.204256", "MEAN_MOTION": 14.46535511, "ECCENTRICITY": 0.0013929, "INCLINATION": 74.0366, "RA_OF_ASC_NODE": 186.7974, "ARG_OF_PERICENTER": 280.3194, "MEAN_ANOMALY": 94.7698, "EPHEMERIS_TYPE": 0, "CLASSIFICATION_TYPE": "U", "NORAD_CAT_ID": 34563, "ELEMENT_SET_NO": 999, "REV_AT_EPOCH": 88328, "BSTAR": 0.00033011, "MEAN_MOTION_DOT": 1.164e-05, "MEAN_MOTION_DDOT": 0}, "tle": {"line1": "1 34563U 93036UZ  25355.79749079  .00001164  00000+0  33011-3 0  9996", "line2": "2 34563  74.0366 186.7974 0013929 280.3194  94.7698 14.46535511883289"}}, "geometry": {"type": "Point", "coordinates": [178.41145471766114, -23.38212900335472]}}, {"type": "Feature", "properties": {"norad_id": 34564, "name": "COSMOS 2251 DEB", "group": "cosmos-2251-debris", "lat": -74.02102155604786, "lon": 130.5540470266855, "alt_km": 754.6725523178038, "timestamp": "2025-12-22T11:33:20.834666+00:00", "meta": {"OBJECT_NAME": "COSMOS 2251 DEB", "OBJECT_ID": "1993-036VA", "EPOCH": "2025-12-21T01:40:16.342176", "MEAN_MOTION": 14.40703135, "ECCENTRICITY": 0.00193185, "INCLINATION": 74.0316, "RA_OF_ASC_NODE": 222.6004, "ARG_OF_PERICENTER": 325.3273, "MEAN_ANOMALY": 185.3128, "EPHEMERIS_TYPE": 0, "CLASSIFICATION_TYPE": "U", "NORAD_CAT_ID": 34564, "ELEMENT_SET_NO": 999, "REV_AT_EPOCH": 88126, "BSTAR": 0.00017237979, "MEAN_MOTION_DOT": 5.25e-06, "MEAN_MOTION_DDOT": 0}, "tle": {"line1": "1 34564U 93036VA  25355.06963359  .00000525  00000+0  17238-3 0  9999", "line2": "2 34564  74.0316 222.6004 0019318 325.3273 185.3128 14.40703135881269"}}, "geometry": {"type": "Point", "coordinates": [130.5540470266855, -74.02102155604786]}}, {"type": "Feature", "properties": {"norad_id": 34567, "name": "COSMOS 2251 DEB", "group": "cosmos-2251-debris", "lat": 73.98121617470528, "lon": -126.10463794140915, "alt_km": 830.8343720125995, "timestamp": "2025-12-22T11:33:20.834676+00:00", "meta": {"OBJECT_NAME": "COSMOS 2251 DEB", "OBJECT_ID": "1993-036VD", "EPOCH": "2025-12-22T03:31:50.447424", "MEAN_MOTION": 14.24026818, "ECCENTRICITY": 0.0074178, "INCLINATION": 74.0409, "RA_OF_ASC_NODE": 139.8486, "ARG_OF_PERICENTER": 212.1023, "MEAN_ANOMALY": 326.4006, "EPHEMERIS_TYPE": 0, "CLASSIFICATION_TYPE": "U", "NORAD_CAT_ID": 34567, "ELEMENT_SET_NO": 999, "REV_AT_EPOCH": 87258, "BSTAR": 0.00022351, "MEAN_MOTION_DOT": 5.03e-06, "MEAN_MOTION_DDOT": 0}, "tle": {"line1": "1 34567U 93036VD  25356.14711166  .00000503  00000+0  22351-3 0  9997", "line2": "2 34567  74.0409 139.8486 0074178 212.1023 326.4006 14.24026818872585"}}, "geometry": {"type": "Point", "coordinates": [-126.10463794140915, 73.98121617470528]}}, {"type": "Feature", "properties": {"norad_id": 34569, "name": "COSMOS 2251 DEB", "group": "cosmos-2251-debris", "lat": -69.75201023485505, "lon": 129.4085106774305, "alt_km": 802.7722942950422, "timestamp": "2025-12-22T11:33:20.834686+00:00", "meta": {"OBJECT_NAME": "COSMOS 2251 DEB", "OBJECT_ID": "1993-036VF", "EPOCH": "2025-12-21T19:09:12.140352", "MEAN_MOTION": 14.24773702, "ECCENTRICITY": 0.0157717, "INCLINATION": 73.9894, "RA_OF_ASC_NODE": 181.7567, "ARG_OF_PERICENTER": 8.0761, "MEAN_ANOMALY": 12.2251, "EPHEMERIS_TYPE": 0, "CLASSIFICATION_TYPE": "U", "NORAD_CAT_ID": 34569, "ELEMENT_SET_NO": 999, "REV_AT_EPOCH": 87097, "BSTAR": 0.00035193, "MEAN_MOTION_DOT": 9.07e-06, "MEAN_MOTION_DDOT": 0}, "tle": {"line1": "1 34569U 93036VF  25355.79805718  .00000907  00000+0  35193-3 0  9992", "line2": "2 34569  73.9894 181.7567 0157717   8.0761  12.2251 14.24773702870975"}}, "geometry": {"type": "Point", "coordinates": [129.4085106774305, -69.75201023485505]}}, {"type": "Feature", "properties": {"norad_id": 34570, "name": "COSMOS 2251 DEB", "group": "cosmos-2251-debris", "lat": 56.67574819123245, "lon": -132.70504881882331, "alt_km": 759.2035673252412, "timestamp": "2025-12-22T11:33:20.834696+00:00", "meta": {"OBJECT_NAME": "COSMOS 2251 DEB", "OBJECT_ID": "1993-036VG", "EPOCH": "2025-12-21T06:41:00.076704", "MEAN_MOTION": 13.99833504, "ECCENTRICITY": 0.0190292, "INCLINATION": 73.9568, "RA_OF_ASC_NODE": 203.4332, "ARG_OF_PERICENTER": 84.0165, "MEAN_ANOMALY": 37.063, "EPHEMERIS_TYPE": 0, "CLASSIFICATION_TYPE": "U", "NORAD_CAT_ID": 34570, "ELEMENT_SET_NO": 999, "REV_AT_EPOCH": 85720, "BSTAR": 0.00041501, "MEAN_MOTION_DOT": 6.89e-06, "MEAN_MOTION_DDOT": 0}, "tle": {"line1": "1 34570U 93036VG  25355.27847311  .00000689  00000+0  41501-3 0  9999", "line2": "2 34570  73.9568 203.4332 0190292  84.0165  37.0630 13.99833504857209"}}, "geometry": {"type": "Point", "coordinates": [-132.70504881882331, 56.67574819123245]}}]}